{"type": "FeatureCollection", "features": [{"type": "Feature", "properties": {"norad_id": 28054, "name": "DMSP 5D-3 F16 (USA 172)", "group": "weather", "lat": -72.60226684038649, "lon": 24.76675129527141, "alt_km": 849.4912329075951, "timestamp": "2025-12-02T23:34:15.155804+00:00", "meta": {"OBJECT_NAME": "DMSP 5D-3 F16 (USA 172)", "OBJECT_ID": "2003-048A", "EPOCH": "2025-12-02T12:45:47.874240", "MEAN_MOTION": 14.14418311, "ECCENTRICITY": 0.0006923, "INCLINATION": 99.0054, "RA_OF_ASC_NODE": 353.9082, "ARG_OF_PERICENTER": 351.8719, "MEAN_ANOMALY": 161.4862, "EPHEMERIS_TYPE": 0, "CLASSIFICATION_TYPE": "U", "NORAD_CAT_ID": 28054, "ELEMENT_SET_NO": 999, "REV_AT_EPOCH": 14168, "BSTAR": 0.00012787, "MEAN_MOTION_DOT": 1.99e-06, "MEAN_MOTION_DDOT": 0}, "tle": {"line1": "1 28054U 03048A   25336.53180410  .00000199  00000+0  12787-3 0  9991", "line2": "2 28054  99.0054 353.9082 0006923 351.8719 161.4862 14.14418311141688"}}, "geometry": {"type": "Point", "coordinates": [24.76675129527141, -72.60226684038649]}}, {"type": "Feature", "properties": {"norad_id": 28912, "name": "METEOSAT-9 (MSG-2)", "group": "weather", "lat": 7.3202233022263234, "lon": 110.8619904597235, "alt_km": 35795.96993609809, "timestamp": "2025-12-02T23:34:15.155854+00:00", "meta": {"OBJECT_NAME": "METEOSAT-9 (MSG-2)", "OBJECT_ID": "2005-049B", "EPOCH": "2025-12-01T20:52:41.183904", "MEAN_MOTION": 1.0027085, "ECCENTRICITY": 0.00039633, "INCLINATION": 8.9132, "RA_OF_ASC_NODE": 56.0736, "ARG_OF_PERICENTER": 184.5981, "MEAN_ANOMALY": 189.0848, "EPHEMERIS_TYPE": 0, "CLASSIFICATION_TYPE": "U", "NORAD_CAT_ID": 28912, "ELEMENT_SET_NO": 999, "REV_AT_EPOCH": 502, "BSTAR": 0, "MEAN_MOTION_DOT": 1.42e-06, "MEAN_MOTION_DDOT": 0}, "tle": {"line1": "1 28912U 05049B   25335.86992111  .00000142  00000+0  00000+0 0  9990", "line2": "2 28912   8.9132  56.0736 0003963 184.5981 189.0848  1.00270850  5029"}}, "geometry": {"type": "Point", "coordinates": [110.8619904597235, 7.3202233022263234]}}, {"type": "Feature", "properties": {"norad_id": 29522, "name": "DMSP 5D-3 F17 (USA 191)", "group": "weather", "lat": -27.964816029954896, "lon": 157.8897475466206, "alt_km": 843.8797511367547, "timestamp": "2025-12-02T23:34:15.155872+00:00", "meta": {"OBJECT_NAME": "DMSP 5D-3 F17 (USA 191)", "OBJECT_ID": "2006-050A", "EPOCH": "2025-12-02T10:42:31.697280", "MEAN_MOTION": 14.14912393, "ECCENTRICITY": 0.0009138, "INCLINATION": 98.7395, "RA_OF_ASC_NODE": 342.0495, "ARG_OF_PERICENTER": 257.0841, "MEAN_ANOMALY": 102.9312, "EPHEMERIS_TYPE": 0, "CLASSIFICATION_TYPE": "U", "NORAD_CAT_ID": 29522, "ELEMENT_SET_NO": 999, "REV_AT_EPOCH": 98459, "BSTAR": 0.00015118, "MEAN_MOTION_DOT": 2.49e-06, "MEAN_MOTION_DDOT": 0}, "tle": {"line1": "1 29522U 06050A   25336.44620020  .00000249  00000+0  15118-3 0  9991", "line2": "2 29522  98.7395 342.0495 0009138 257.0841 102.9312 14.14912393984598"}}, "geometry": {"type": "Point", "coordinates": [157.8897475466206, -27.964816029954896]}}, {"type": "Feature", "properties": {"norad_id": 32958, "name": "FENGYUN 3A", "group": "weather", "lat": 57.681284867172, "lon": 110.6687533723518, "alt_km": 826.1073505776903, "timestamp": "2025-12-02T23:34:15.155885+00:00", "meta": {"OBJECT_NAME": "FENGYUN 3A", "OBJECT_ID": "2008-026A", "EPOCH": "2025-12-02T11:09:37.054080", "MEAN_MOTION": 14.19509189, "ECCENTRICITY": 0.0008399, "INCLINATION": 98.6683, "RA_OF_ASC_NODE": 276.2089, "ARG_OF_PERICENTER": 341.9992, "MEAN_ANOMALY": 18.0886, "EPHEMERIS_TYPE": 0, "CLASSIFICATION_TYPE": "U", "NORAD_CAT_ID": 32958, "ELEMENT_SET_NO": 999, "REV_AT_EPOCH": 90749, "BSTAR": 9.8241e-05, "MEAN_MOTION_DOT": 1.64e-06, "MEAN_MOTION_DDOT": 0}, "tle": {"line1": "1 32958U 08026A   25336.46501220  .00000164  00000+0  98241-4 0  9990", "line2": "2 32958  98.6683 276.2089 0008399 341.9992  18.0886 14.19509189907496"}}, "geometry": {"type": "Point", "coordinates": [110.6687533723518, 57.681284867172]}}, {"type": "Feature", "properties": {"norad_id": 35491, "name": "GOES 14", "group": "weather", "lat": -0.9203054704245869, "lon": -42.681133844466295, "alt_km": 35783.56102700086, "timestamp": "2025-12-02T23:34:15.155899+00:00", "meta": {"OBJECT_NAME": "GOES 14", "OBJECT_ID": "2009-033A", "EPOCH": "2025-12-02T09:40:38.804160", "MEAN_MOTION": 1.00272643, "ECCENTRICITY": 0.0004148, "INCLINATION": 1.17, "RA_OF_ASC_NODE": 85.5307, "ARG_OF_PERICENTER": 149.4678, "MEAN_ANOMALY": 233.3296, "EPHEMERIS_TYPE": 0, "CLASSIFICATION_TYPE": "U", "NORAD_CAT_ID": 35491, "ELEMENT_SET_NO": 999, "REV_AT_EPOCH": 462, "BSTAR": 0, "MEAN_MOTION_DOT": -4.7e-07, "MEAN_MOTION_DDOT": 0}, "tle": {"line1": "1 35491U 09033A   25336.40322690 -.00000047  00000+0  00000+0 0  9992", "line2": "2 35491   1.1700  85.5307 0004148 149.4678 233.3296  1.00272643  4622"}}, "geometry": {"type": "Point", "coordinates": [-42.681133844466295, -0.9203054704245869]}}, {"type": "Feature", "properties": {"norad_id": 35951, "name": "DMSP 5D-3 F18 (USA 210)", "group": "weather", "lat": 77.27464310591151, "lon": -90.39424582694224, "alt_km": 827.1574083751593, "timestamp": "2025-12-02T23:34:15.155912+00:00", "meta": {"OBJECT_NAME": "DMSP 5D-3 F18 (USA 210)", "OBJECT_ID": "2009-057A", "EPOCH": "2025-12-02T11:18:33.351840", "MEAN_MOTION": 14.14759548, "ECCENTRICITY": 0.0012109, "INCLINATION": 98.8823, "RA_OF_ASC_NODE": 312.924, "ARG_OF_PERICENTER": 89.4399, "MEAN_ANOMALY": 270.8162, "EPHEMERIS_TYPE": 0, "CLASSIFICATION_TYPE": "U", "NORAD_CAT_ID": 35951, "ELEMENT_SET_NO": 999, "REV_AT_EPOCH": 83177, "BSTAR": 0.00019746, "MEAN_MOTION_DOT": 3.36e-06, "MEAN_MOTION_DDOT": 0}, "tle": {"line1": "1 35951U 09057A   25336.47121935  .00000336  00000+0  19746-3 0  9996", "line2": "2 35951  98.8823 312.9240 0012109  89.4399 270.8162 14.14759548831779"}}, "geometry": {"type": "Point", "coordinates": [-90.39424582694224, 77.27464310591151]}}, {"type": "Feature", "properties": {"norad_id": 36411, "name": "EWS-G2 (GOES 15)", "group": "weather", "lat": 0.5207307036251497, "lon": 127.06655617775914, "alt_km": 35802.65141389893, "timestamp": "2025-12-02T23:34:15.155926+00:00", "meta": {"OBJECT_NAME": "EWS-G2 (GOES 15)", "OBJECT_ID": "2010-008A", "EPOCH": "2025-12-02T05:14:38.882976", "MEAN_MOTION": 1.0026755, "ECCENTRICITY": 0.0005905, "INCLINATION": 0.7855, "RA_OF_ASC_NODE": 86.0568, "ARG_OF_PERICENTER": 169.385, "MEAN_ANOMALY": 316.0641, "EPHEMERIS_TYPE": 0, "CLASSIFICATION_TYPE": "U", "NORAD_CAT_ID": 36411, "ELEMENT_SET_NO": 999, "REV_AT_EPOCH": 5766, "BSTAR": 0, "MEAN_MOTION_DOT": 5.8e-07, "MEAN_MOTION_DDOT": 0}, "tle": {"line1": "1 36411U 10008A   25336.21850559  .00000058  00000+0  00000+0 0  9999", "line2": "2 36411   0.7855  86.0568 0005905 169.3850 316.0641  1.00267550 57667"}}, "geometry": {"type": "Point", "coordinates": [127.06655617775914, 0.5207307036251497]}}, {"type": "Feature", "properties": {"norad_id": 36744, "name": "COMS 1", "group": "weather", "lat": 3.8694470466199196, "lon": -166.15570346980581, "alt_km": 35784.11436762228, "timestamp": "2025-12-02T23:34:15.155939+00:00", "meta": {"OBJECT_NAME": "COMS 1", "OBJECT_ID": "2010-032A", "EPOCH": "2025-12-01T12:42:46.444608", "MEAN_MOTION": 1.00270535, "ECCENTRICITY": 0.00010192, "INCLINATION": 4.3122, "RA_OF_ASC_NODE": 78.1218, "ARG_OF_PERICENTER": 177.7332, "MEAN_ANOMALY": 133.6625, "EPHEMERIS_TYPE": 0, "CLASSIFICATION_TYPE": "U", "NORAD_CAT_ID": 36744, "ELEMENT_SET_NO": 999, "REV_AT_EPOCH": 4910, "BSTAR": 0, "MEAN_MOTION_DOT": -3.23e-06, "MEAN_MOTION_DDOT": 0}, "tle": {"line1": "1 36744U 10032A   25335.52970422 -.00000323  00000+0  00000+0 0  9996", "line2": "2 36744   4.3122  78.1218 0001019 177.7332 133.6625  1.00270535 49109"}}, "geometry": {"type": "Point", "coordinates": [-166.15570346980581, 3.8694470466199196]}}, {"type": "Feature", "properties": {"norad_id": 37214, "name": "FENGYUN 3B", "group": "weather", "lat": 43.8706351280817, "lon": 8.134906867848889, "alt_km": 823.9756339717678, "timestamp": "2025-12-02T23:34:15.155951+00:00", "meta": {"OBJECT_NAME": "FENGYUN 3B", "OBJECT_ID": "2010-059A", "EPOCH": "2025-12-02T13:54:53.246016", "MEAN_MOTION": 14.14785219, "ECCENTRICITY": 0.0022477, "INCLINATION": 98.9922, "RA_OF_ASC_NODE": 16.4855, "ARG_OF_PERICENTER": 26.3953, "MEAN_ANOMALY": 130.104, "EPHEMERIS_TYPE": 0, "CLASSIFICATION_TYPE": "U", "NORAD_CAT_ID": 37214, "ELEMENT_SET_NO": 999, "REV_AT_EPOCH": 77962, "BSTAR": 9.6668e-05, "MEAN_MOTION_DOT": 1.41e-06, "MEAN_MOTION_DDOT": 0}, "tle": {"line1": "1 37214U 10059A   25336.57978294  .00000141  00000+0  96668-4 0  9996", "line2": "2 37214  98.9922  16.4855 0022477  26.3953 130.1040 14.14785219779629"}}, "geometry": {"type": "Point", "coordinates": [8.134906867848889, 43.8706351280817]}}, {"type": "Feature", "properties": {"norad_id": 37849, "name": "SUOMI NPP", "group": "weather", "lat": 76.53499055024699, "lon": -125.76601398837533, "alt_km": 819.036175810972, "timestamp": "2025-12-02T23:34:15.155962+00:00", "meta": {"OBJECT_NAME": "SUOMI NPP", "OBJECT_ID": "2011-061A", "EPOCH": "2025-12-02T13:02:47.421024", "MEAN_MOTION": 14.19509446, "ECCENTRICITY": 0.0001864, "INCLINATION": 98.7758, "RA_OF_ASC_NODE": 273.9777, "ARG_OF_PERICENTER": 138.3501, "MEAN_ANOMALY": 221.7817, "EPHEMERIS_TYPE": 0, "CLASSIFICATION_TYPE": "U", "NORAD_CAT_ID": 37849, "ELEMENT_SET_NO": 999, "REV_AT_EPOCH": 73054, "BSTAR": 8.4346e-05, "MEAN_MOTION_DOT": 1.34e-06, "MEAN_MOTION_DDOT": 0}, "tle": {"line1": "1 37849U 11061A   25336.54360441  .00000134  00000+0  84346-4 0  9992", "line2": "2 37849  98.7758 273.9777 0001864 138.3501 221.7817 14.19509446730549"}}, "geometry": {"type": "Point", "coordinates": [-125.76601398837533, 76.53499055024699]}}]}